[{"OBJECT_NAME":"STARLINK-11706 [DTC]","OBJECT_ID":"2025-089C","EPOCH":"2026-03-09T02:03:20.311200","MEAN_MOTION":15.70882645,"ECCENTRICITY":0.00019389,"INCLINATION":42.9994,"RA_OF_ASC_NODE":295.6045,"ARG_OF_PERICENTER":275.5089,"MEAN_ANOMALY":84.5558,"EPHEMERIS_TYPE":0,"CLASSIFICATION_TYPE":"U","NORAD_CAT_ID":63753,"ELEMENT_SET_NO":999,"REV_AT_EPOCH":5004,"BSTAR":0.0018748543,"MEAN_MOTION_DOT":0.00247879,"MEAN_MOTION_DDOT":0},{"OBJECT_NAME":"COSMOS 921 DEB","OBJECT_ID":"1977-055C","EPOCH":"2026-03-09T22:42:10.805760","MEAN_MOTION":15.70063735,"ECCENTRICITY":0.00183564,"INCLINATION":75.8082,"RA_OF_ASC_NODE":161.9867,"ARG_OF_PERICENTER":333.9317,"MEAN_ANOMALY":26.0991,"EPHEMERIS_TYPE":0,"CLASSIFICATION_TYPE":"U","NORAD_CAT_ID":39690,"ELEMENT_SET_NO":999,"REV_AT_EPOCH":65481,"BSTAR":0.0010474937,"MEAN_MOTION_DOT":0.0012919,"MEAN_MOTION_DDOT":0}]
